STARLINK-35858          
1 66833U 25280N   25361.74661144  .00125175  00000+0  20003-2 0  9990
2 66833  70.0002 157.2848 0003645 265.9023  94.1747 15.52590404  5267
STARLINK-35840          
1 66834U 25280P   25361.91671296 -.00043055  00000+0 -70077-3 0  9994
2 66834  70.0000 156.8141 0003233 279.0891 313.3579 15.52524661  5338
STARLINK-35890          
1 66835U 25280Q   25361.74539119  .00177961  00000+0  27091-2 0  9992
2 66835  70.0004 157.2787 0006419 258.4546 101.5921 15.53729201  5269
STARLINK-35838          
1 66836U 25280R   25361.91671296 -.00169826  00000+0 -28095-2 0  9993
2 66836  70.0002 156.8098 0003367 271.1345 325.1151 15.52592863  5334
STARLINK-35729          
1 66837U 25280S   25361.61605859 -.00574104  00000+0 -98165-2 0  9997
2 66837  70.0006 157.6293 0004565 276.0248  84.0419 15.53075151  5247
STARLINK-35886          
1 66838U 25280T   25361.80889976 -.00918950  00000+0 -16720-1 0  9990
2 66838  70.0006 157.0978 0003181 273.6626  86.4197 15.52093425  5273
STARLINK-35717          
1 66839U 25280U   25361.91671296 -.00083178  00000+0 -13615-2 0  9993
2 66839  70.0003 156.8055 0003413 273.3524 326.7414 15.52557657  5337
STARLINK-35837          
1 66840U 25280V   25361.91671296 -.02074055  00000+0 -40669-1 0  9999
2 66840  69.9999 156.8033 0003441 275.6439 326.6561 15.50511388  5338
STARLINK-35715          
1 66841U 25280W   25361.91671296 -.02072052  00000+0 -40623-1 0  9995
2 66841  69.9999 156.8013 0003497 273.3227 330.9035 15.50512117  5333
STARLINK-35769          
1 66842U 25280X   25361.87238858  .00102812  00000+0  16504-2 0  9990
2 66842  70.0006 156.9176 0003004 287.1658  72.9200 15.52553464  5285
STARLINK-35997          
1 66843U 25280Y   25361.91671296  .00025354  00000+0  41358-3 0  9994
2 66843  70.0003 156.7918 0003334 278.0950 333.5036 15.52515321  5334
STARLINK-36073          
1 66844U 25280Z   25361.87186915  .00340579  00000+0  51396-2 0  9990
2 66844  70.0006 156.9155 0004162 270.2514  89.8196 15.53399390  5259
