CCSDS_OMM_VERS = 2.0
CREATION_DATE  = 
ORIGINATOR     = 

OBJECT_NAME    = STARLINK-35858
OBJECT_ID      = 2025-280N
CENTER_NAME    = EARTH
REF_FRAME      = TEME
TIME_SYSTEM    = UTC
MEAN_ELEMENT_THEORY = SGP/SGP4

EPOCH          = 2025-12-27T17:55:07.228416
MEAN_MOTION    = 15.52590404
ECCENTRICITY   = .00036459
INCLINATION    = 70.0002
RA_OF_ASC_NODE = 157.2848
ARG_OF_PERICENTER = 265.9023
MEAN_ANOMALY   = 94.1747

EPHEMERIS_TYPE = 0
CLASSIFICATION_TYPE = U
NORAD_CAT_ID   = 66833
ELEMENT_SET_NO = 999
REV_AT_EPOCH   = 526
BSTAR          = .20003179E-2
MEAN_MOTION_DOT = .125175E-2
MEAN_MOTION_DDOT = 0

CCSDS_OMM_VERS = 2.0
CREATION_DATE  = 
ORIGINATOR     = 

OBJECT_NAME    = STARLINK-35840
OBJECT_ID      = 2025-280P
CENTER_NAME    = EARTH
REF_FRAME      = TEME
TIME_SYSTEM    = UTC
MEAN_ELEMENT_THEORY = SGP/SGP4

EPOCH          = 2025-12-27T22:00:03.999744
MEAN_MOTION    = 15.52524661
ECCENTRICITY   = .00032334
INCLINATION    = 70.0000
RA_OF_ASC_NODE = 156.8141
ARG_OF_PERICENTER = 279.0891
MEAN_ANOMALY   = 313.3579

EPHEMERIS_TYPE = 0
CLASSIFICATION_TYPE = U
NORAD_CAT_ID   = 66834
ELEMENT_SET_NO = 999
REV_AT_EPOCH   = 533
BSTAR          = -.70077165E-3
MEAN_MOTION_DOT = -.43055E-3
MEAN_MOTION_DDOT = 0

CCSDS_OMM_VERS = 2.0
CREATION_DATE  = 
ORIGINATOR     = 

OBJECT_NAME    = STARLINK-35890
OBJECT_ID      = 2025-280Q
CENTER_NAME    = EARTH
REF_FRAME      = TEME
TIME_SYSTEM    = UTC
MEAN_ELEMENT_THEORY = SGP/SGP4

EPOCH          = 2025-12-27T17:53:21.798816
MEAN_MOTION    = 15.53729201
ECCENTRICITY   = .00064192
INCLINATION    = 70.0004
RA_OF_ASC_NODE = 157.2787
ARG_OF_PERICENTER = 258.4546
MEAN_ANOMALY   = 101.5921

EPHEMERIS_TYPE = 0
CLASSIFICATION_TYPE = U
NORAD_CAT_ID   = 66835
ELEMENT_SET_NO = 999
REV_AT_EPOCH   = 526
BSTAR          = .27090985E-2
MEAN_MOTION_DOT = .177961E-2
MEAN_MOTION_DDOT = 0

CCSDS_OMM_VERS = 2.0
CREATION_DATE  = 
ORIGINATOR     = 

OBJECT_NAME    = STARLINK-35838
OBJECT_ID      = 2025-280R
CENTER_NAME    = EARTH
REF_FRAME      = TEME
TIME_SYSTEM    = UTC
MEAN_ELEMENT_THEORY = SGP/SGP4

EPOCH          = 2025-12-27T22:00:03.999744
MEAN_MOTION    = 15.52592863
ECCENTRICITY   = .00033679
INCLINATION    = 70.0002
RA_OF_ASC_NODE = 156.8098
ARG_OF_PERICENTER = 271.1345
MEAN_ANOMALY   = 325.1151

EPHEMERIS_TYPE = 0
CLASSIFICATION_TYPE = U
NORAD_CAT_ID   = 66836
ELEMENT_SET_NO = 999
REV_AT_EPOCH   = 533
BSTAR          = -.28094688E-2
MEAN_MOTION_DOT = -.169826E-2
MEAN_MOTION_DDOT = 0

CCSDS_OMM_VERS = 2.0
CREATION_DATE  = 
ORIGINATOR     = 

OBJECT_NAME    = STARLINK-35729
OBJECT_ID      = 2025-280S
CENTER_NAME    = EARTH
REF_FRAME      = TEME
TIME_SYSTEM    = UTC
MEAN_ELEMENT_THEORY = SGP/SGP4

EPOCH          = 2025-12-27T14:47:07.462176
MEAN_MOTION    = 15.53075151
ECCENTRICITY   = .0004565
INCLINATION    = 70.0006
RA_OF_ASC_NODE = 157.6293
ARG_OF_PERICENTER = 276.0248
MEAN_ANOMALY   = 84.0419

EPHEMERIS_TYPE = 0
CLASSIFICATION_TYPE = U
NORAD_CAT_ID   = 66837
ELEMENT_SET_NO = 999
REV_AT_EPOCH   = 524
BSTAR          = -.98165104E-2
MEAN_MOTION_DOT = -.574104E-2
MEAN_MOTION_DDOT = 0

CCSDS_OMM_VERS = 2.0
CREATION_DATE  = 
ORIGINATOR     = 

OBJECT_NAME    = STARLINK-35886
OBJECT_ID      = 2025-280T
CENTER_NAME    = EARTH
REF_FRAME      = TEME
TIME_SYSTEM    = UTC
MEAN_ELEMENT_THEORY = SGP/SGP4

EPOCH          = 2025-12-27T19:24:48.939264
MEAN_MOTION    = 15.52093425
ECCENTRICITY   = .00031818
INCLINATION    = 70.0006
RA_OF_ASC_NODE = 157.0978
ARG_OF_PERICENTER = 273.6626
MEAN_ANOMALY   = 86.4197

EPHEMERIS_TYPE = 0
CLASSIFICATION_TYPE = U
NORAD_CAT_ID   = 66838
ELEMENT_SET_NO = 999
REV_AT_EPOCH   = 527
BSTAR          = -.16720024E-1
MEAN_MOTION_DOT = -.91895E-2
MEAN_MOTION_DDOT = 0

CCSDS_OMM_VERS = 2.0
CREATION_DATE  = 
ORIGINATOR     = 

OBJECT_NAME    = STARLINK-35717
OBJECT_ID      = 2025-280U
CENTER_NAME    = EARTH
REF_FRAME      = TEME
TIME_SYSTEM    = UTC
MEAN_ELEMENT_THEORY = SGP/SGP4

EPOCH          = 2025-12-27T22:00:03.999744
MEAN_MOTION    = 15.52557657
ECCENTRICITY   = .00034132
INCLINATION    = 70.0003
RA_OF_ASC_NODE = 156.8055
ARG_OF_PERICENTER = 273.3524
MEAN_ANOMALY   = 326.7414

EPHEMERIS_TYPE = 0
CLASSIFICATION_TYPE = U
NORAD_CAT_ID   = 66839
ELEMENT_SET_NO = 999
REV_AT_EPOCH   = 533
BSTAR          = -.13615283E-2
MEAN_MOTION_DOT = -.83178E-3
MEAN_MOTION_DDOT = 0

CCSDS_OMM_VERS = 2.0
CREATION_DATE  = 
ORIGINATOR     = 

OBJECT_NAME    = STARLINK-35837
OBJECT_ID      = 2025-280V
CENTER_NAME    = EARTH
REF_FRAME      = TEME
TIME_SYSTEM    = UTC
MEAN_ELEMENT_THEORY = SGP/SGP4

EPOCH          = 2025-12-27T22:00:03.999744
MEAN_MOTION    = 15.50511388
ECCENTRICITY   = .00034413
INCLINATION    = 69.9999
RA_OF_ASC_NODE = 156.8033
ARG_OF_PERICENTER = 275.6439
MEAN_ANOMALY   = 326.6561

EPHEMERIS_TYPE = 0
CLASSIFICATION_TYPE = U
NORAD_CAT_ID   = 66840
ELEMENT_SET_NO = 999
REV_AT_EPOCH   = 533
BSTAR          = -.40669046E-1
MEAN_MOTION_DOT = -.2074055E-1
MEAN_MOTION_DDOT = 0

CCSDS_OMM_VERS = 2.0
CREATION_DATE  = 
ORIGINATOR     = 

OBJECT_NAME    = STARLINK-35715
OBJECT_ID      = 2025-280W
CENTER_NAME    = EARTH
REF_FRAME      = TEME
TIME_SYSTEM    = UTC
MEAN_ELEMENT_THEORY = SGP/SGP4

EPOCH          = 2025-12-27T22:00:03.999744
MEAN_MOTION    = 15.50512117
ECCENTRICITY   = .00034972
INCLINATION    = 69.9999
RA_OF_ASC_NODE = 156.8013
ARG_OF_PERICENTER = 273.3227
MEAN_ANOMALY   = 330.9035

EPHEMERIS_TYPE = 0
CLASSIFICATION_TYPE = U
NORAD_CAT_ID   = 66841
ELEMENT_SET_NO = 999
REV_AT_EPOCH   = 533
BSTAR          = -.40622966E-1
MEAN_MOTION_DOT = -.2072052E-1
MEAN_MOTION_DDOT = 0

CCSDS_OMM_VERS = 2.0
CREATION_DATE  = 
ORIGINATOR     = 

OBJECT_NAME    = STARLINK-35769
OBJECT_ID      = 2025-280X
CENTER_NAME    = EARTH
REF_FRAME      = TEME
TIME_SYSTEM    = UTC
MEAN_ELEMENT_THEORY = SGP/SGP4

EPOCH          = 2025-12-27T20:56:14.373312
MEAN_MOTION    = 15.52553464
ECCENTRICITY   = .00030041
INCLINATION    = 70.0006
RA_OF_ASC_NODE = 156.9176
ARG_OF_PERICENTER = 287.1658
MEAN_ANOMALY   = 72.9200

EPHEMERIS_TYPE = 0
CLASSIFICATION_TYPE = U
NORAD_CAT_ID   = 66842
ELEMENT_SET_NO = 999
REV_AT_EPOCH   = 528
BSTAR          = .16503711E-2
MEAN_MOTION_DOT = .102812E-2
MEAN_MOTION_DDOT = 0

CCSDS_OMM_VERS = 2.0
CREATION_DATE  = 
ORIGINATOR     = 

OBJECT_NAME    = STARLINK-35997
OBJECT_ID      = 2025-280Y
CENTER_NAME    = EARTH
REF_FRAME      = TEME
TIME_SYSTEM    = UTC
MEAN_ELEMENT_THEORY = SGP/SGP4

EPOCH          = 2025-12-27T22:00:03.999744
MEAN_MOTION    = 15.52515321
ECCENTRICITY   = .00033349
INCLINATION    = 70.0003
RA_OF_ASC_NODE = 156.7918
ARG_OF_PERICENTER = 278.0950
MEAN_ANOMALY   = 333.5036

EPHEMERIS_TYPE = 0
CLASSIFICATION_TYPE = U
NORAD_CAT_ID   = 66843
ELEMENT_SET_NO = 999
REV_AT_EPOCH   = 533
BSTAR          = .41357573E-3
MEAN_MOTION_DOT = .25354E-3
MEAN_MOTION_DDOT = 0

CCSDS_OMM_VERS = 2.0
CREATION_DATE  = 
ORIGINATOR     = 

OBJECT_NAME    = STARLINK-36073
OBJECT_ID      = 2025-280Z
CENTER_NAME    = EARTH
REF_FRAME      = TEME
TIME_SYSTEM    = UTC
MEAN_ELEMENT_THEORY = SGP/SGP4

EPOCH          = 2025-12-27T20:55:29.494560
MEAN_MOTION    = 15.53399390
ECCENTRICITY   = .00041628
INCLINATION    = 70.0006
RA_OF_ASC_NODE = 156.9155
ARG_OF_PERICENTER = 270.2514
MEAN_ANOMALY   = 89.8196

EPHEMERIS_TYPE = 0
CLASSIFICATION_TYPE = U
NORAD_CAT_ID   = 66844
ELEMENT_SET_NO = 999
REV_AT_EPOCH   = 525
BSTAR          = .5139625E-2
MEAN_MOTION_DOT = .340579E-2
MEAN_MOTION_DDOT = 0

